STARLINK-30525          
1 58012U 23153X   26068.00175496  .00000980  00000+0  46237-4 0  9996
2 58012  43.0059  70.7104 0001869 287.6945  72.3702 15.26741269134791
FLOCK 4G-2              
1 62661U 25009BE  26068.66207492  .00013752  00000+0  51068-3 0  9995
2 62661  97.4044 151.2221 0003181 329.2677  30.8376 15.27675260121321
